OBJECT_NAME,OBJECT_ID,EPOCH,MEAN_MOTION,ECCENTRICITY,INCLINATION,RA_OF_ASC_NODE,ARG_OF_PERICENTER,MEAN_ANOMALY,EPHEMERIS_TYPE,CLASSIFICATION_TYPE,NORAD_CAT_ID,ELEMENT_SET_NO,REV_AT_EPOCH,BSTAR,MEAN_MOTION_DOT,MEAN_MOTION_DDOT
SL-12 R/B(2),1985-042D,2026-06-13T15:41:29.692896,14.22005249,.0036135,71.1080,244.9813,333.1239,133.4416,0,U,15772,999,12803,.44317E-4,.51E-6,0
SL-14 R/B,1985-069B,2026-06-13T20:54:01.146240,14.86513255,.0017567,82.5268,294.4849,230.8271,129.1386,0,U,15945,999,18712,.42792E-4,.404E-5,0
SL-16 R/B,1985-097B,2026-06-13T19:36:28.082016,14.16610900,.0005445,71.0035,298.1734,118.3795,350.6477,0,U,16182,999,10084,-.98914E-4,-.245E-5,0
SL-14 R/B,1986-006B,2026-06-13T18:06:00.638784,14.86942577,.007517,82.5262,169.3440,315.0610,44.4536,0,U,16496,999,16348,.56952E-4,.561E-5,0
COSMOS 1743,1986-034A,2026-06-13T12:09:06.961248,15.66631400,.00037679,82.5268,332.6452,288.5070,71.5780,0,U,16719,999,19521,.43582448E-3,.45802E-3,0
SL-14 R/B,1986-046B,2026-06-13T18:50:51.594432,14.85669004,.0021568,82.4816,349.3903,270.5172,89.3573,0,U,16792,999,14067,.40949E-4,.38E-5,0
SL-14 R/B,1986-055B,2026-06-13T17:02:37.008384,14.85721024,.0019379,82.5205,36.4021,19.0002,41.0362,0,U,16882,999,13362,.4029E-4,.375E-5,0
AJISAI (EGS),1986-061A,2026-06-13T20:13:05.310048,12.44516810,.001123,50.0064,157.6802,172.1295,255.2220,0,U,16908,999,47997,-.83658E-6,-.98E-6,0
SL-14 R/B,1987-024B,2026-06-13T15:34:48.480672,14.86211203,.0016954,82.5281,2.5765,305.9154,54.0488,0,U,17567,999,10238,.39278E-4,.37E-5,0
COSMOS 1833,1987-027A,2026-06-13T15:21:01.184256,14.13047341,.0022712,70.9172,124.3250,61.0366,299.3028,0,U,17589,999,2387,.19231E-3,.312E-5,0
SL-16 R/B,1987-027B,2026-06-13T19:52:26.190624,14.17172600,.0006396,71.0034,73.9070,316.1608,43.9008,0,U,17590,999,2896,-.49694E-4,-.148E-5,0
SL-14 R/B,1987-038B,2026-06-13T19:52:35.264352,14.85443380,.0018585,82.5010,206.2363,202.5373,157.5029,0,U,17912,999,9350,.33331E-4,.312E-5,0
COSMOS 1844,1987-041A,2026-06-13T12:01:01.515072,14.14568796,.00330696,70.8974,192.0836,240.9035,118.8775,0,U,17973,999,1713,-.58438192E-4,-.161E-5,0
SL-14 R/B,1987-055B,2026-06-13T17:18:09.176256,14.85708984,.0021897,82.4995,258.4964,58.5013,301.8339,0,U,18153,999,8419,.40752E-4,.38E-5,0
COSMOS 1867,1987-060A,2026-06-13T20:23:39.498144,14.31515481,.0016443,65.0116,37.4055,282.0907,77.8334,0,U,18187,999,3370,.26673E-4,-.29E-6,0
SL-14 R/B,1988-001B,2026-06-13T20:34:40.187712,14.85607564,.0016476,82.5131,104.9061,281.6371,78.2996,0,U,18749,999,5630,.42224E-4,.39E-5,0
COSMOS 1933,1988-020A,2026-06-13T11:30:35.817408,15.18690741,.00030646,82.5115,156.1064,199.9562,160.1553,0,U,18958,999,6476,.15345971E-3,.3212E-4,0
SL-3 R/B,1988-032B,2026-06-13T21:18:04.044384,15.20818407,.0023696,97.5247,147.9316,257.3699,102.4886,0,U,19046,999,6672,.19661E-3,.4296E-4,0
SL-16 R/B,1988-039B,2026-06-13T14:20:45.607776,14.19629506,.0022478,71.0141,225.7482,198.4699,161.5613,0,U,19120,999,97199,-.33505E-4,-.119E-5,0
COSMOS 1953,1988-050A,2026-06-13T17:57:56.550816,15.29934125,.0011913,82.5086,61.5019,136.8086,223.4091,0,U,19210,999,5246,.26791E-3,.7812E-4,0
SL-8 R/B,1988-053B,2026-06-13T19:36:53.443008,14.38966270,.0019169,74.0479,295.2692,91.8353,19.6817,0,U,19257,999,99042,.58194E-4,.154E-5,0
COSMOS 1975,1988-093A,2026-06-13T21:11:11.824800,15.29288119,.0010982,82.5195,21.0265,182.9263,177.1915,0,U,19573,999,3410,.26406E-3,.7546E-4,0
SL-14 R/B,1988-093B,2026-06-13T20:21:00.197280,14.85739586,.0022164,82.5309,311.7799,80.7390,33.7047,0,U,19574,999,1529,.45371E-4,.42E-5,0
SL-16 R/B,1988-102B,2026-06-13T19:50:26.949984,14.16165252,.0015945,71.0002,309.2103,230.1237,129.8485,0,U,19650,999,94050,-.97984E-4,-.242E-5,0
INTERCOSMOS 24,1989-080A,2026-06-13T16:20:18.044160,12.59656829,.118839,82.6068,41.9264,70.0341,302.4635,0,U,20261,999,67888,.25483E-3,.897E-5,0
SL-14 R/B,1989-080C,2026-06-13T21:10:43.267008,12.50569021,.1228922,82.5929,111.4307,324.9648,27.6224,0,U,20262,999,67217,.92412E-4,.309E-5,0
DELTA 1 R/B,1989-089B,2026-06-13T13:31:44.338368,14.50729331,.0068913,97.0637,356.7018,178.3878,181.7555,0,U,20323,999,90963,.89381E-4,.327E-5,0
ARIANE 40 R/B,1990-005H,2026-06-13T18:41:23.205120,14.39925687,.0008795,98.2960,222.5006,276.2463,83.7723,0,U,20443,999,90663,.82481E-4,.217E-5,0
DELTA 2 R/B(1),1990-008B,2026-06-13T15:01:56.898336,15.68298526,.0065615,35.6007,259.4711,80.4623,280.3524,0,U,20453,999,94114,.66615E-3,.88351E-3,0
COSMOS 2058,1990-010A,2026-06-13T19:50:10.767264,15.11991749,.0009615,82.4667,312.6689,12.8543,347.2931,0,U,20465,999,95676,.23006E-3,.398E-4,0
SL-14 R/B,1990-010B,2026-06-13T12:37:21.368064,14.83644167,.00194115,82.5016,177.3834,348.6604,11.4171,0,U,20466,999,94269,.4135196E-4,.366E-5,0
